NORAD_CAT_ID,OBJECT_NAME,OBJECT_TYPE,EPOCH,MEAN_MOTION,ECCENTRICITY,INCLINATION,RA_OF_ASC_NODE,ARG_OF_PERICENTER,MEAN_ANOMALY,BSTAR,MEAN_MOTION_DOT,MEAN_MOTION_DDOT,TLE_LINE0,TLE_LINE1,TLE_LINE2,SEMIMAJOR_AXIS,PERIOD,APOGEE,PERIGEE,DECAYED
49425.0,STARLINK-3139,PAYLOAD,2022-03-26 06:00:00,15.08803456,0.0001526,53.2162,233.4512,50.8721,341.3346,0.0024918,0.00039552,0.0,0 STARLINK-3139,1 49425U 21104T   22085.25001157  .00039552  00000-0  24918-2 0  9990,2 49425  53.2162 233.4512 0001526  50.8721 341.3346 15.08803456 21650,6917.9919999999975,95.44,540.913,538.8009999999998,0.0
49425.0,STARLINK-3139,PAYLOAD,2022-03-26 14:00:01,15.08841648,0.0001626,53.2163,231.9562,49.4991,354.26800000000014,-0.0015592,-0.00025018,0.0,0 STARLINK-3139,1 49425U 21104T   22085.58334491 -.00025018  00000-0 -15592-2 0  9998,2 49425  53.2163 231.9562 0001626  49.4991 354.2680 15.08841648  3573,6917.875,95.437,540.865,538.616,0.0
49425.0,STARLINK-3139,PAYLOAD,2022-03-26 22:00:00,15.08824959,0.0001712,53.2157,230.4604,44.0627,11.2903,0.0015851,0.00025019,0.0,0 STARLINK-3139,1 49425U 21104T   22085.91667824  .00025019  00000-0  15851-2 0  9991,2 49425  53.2157 230.4604 0001712  44.0627  11.2903 15.08824959 21754,6917.926,95.439,540.976,538.607,0.0
49425.0,STARLINK-3139,PAYLOAD,2022-03-27 06:00:00,15.08792633,0.0001626,53.2166,228.9635,53.5919,13.3554,0.0037587,0.00059963,0.0,0 STARLINK-3139,1 49425U 21104T   22086.25001157  .00059963  00000-0  37587-2 0  9995,2 49425  53.2166 228.9635 0001626  53.5919  13.3554 15.08792633 21807,6918.025,95.441,541.015,538.765,0.0
49425.0,STARLINK-3139,PAYLOAD,2022-03-27 14:00:01,15.08836343,0.0001769,53.2158,227.4672,51.8752,26.6248,-0.0013671,-0.00021978,0.0,0 STARLINK-3139,1 49425U 21104T   22086.58334491 -.00021978  00000-0 -13671-2 0  9996,2 49425  53.2158 227.4672 0001769  51.8752  26.6248 15.08836343  3609,6917.892,95.438,540.98,538.533,0.0
49425.0,STARLINK-3139,PAYLOAD,2022-03-27 22:00:01,15.08831702,0.0001841,53.2154,225.9712,46.6923,43.4539,0.0016907,0.00026716,0.0,0 STARLINK-3139,1 49425U 21104T   22086.91668981  .00026716  00000-0  16907-2 0  9995,2 49425  53.2154 225.9712 0001841  46.6923  43.4539 15.08831702 21903,6917.906,95.438,541.044,538.497,0.0
49425.0,STARLINK-3139,PAYLOAD,2022-03-28 14:00:01,15.08885348,0.0001811,53.2157,222.9779,49.5681,63.7819,-0.0027716,-0.00044183,0.0,0 STARLINK-3139,1 49425U 21104T   22087.58335648 -.00044183  00000-0 -27716-2 0  9990,2 49425  53.2157 222.9779 0001811  49.5681  63.7819 15.08885348  3604,6917.7419999999975,95.435,540.86,538.354,0.0
49425.0,STARLINK-3139,PAYLOAD,2022-03-28 22:00:00,15.08864694,0.000179,53.2156,221.4818,42.7407,82.1732,-0.0025816,-0.00041168,0.0,0 STARLINK-3139,1 49425U 21104T   22087.91667824 -.00041168  00000-0 -25816-2 0  9990,2 49425  53.2156 221.4818 0001790  42.7407  82.1732 15.08864694 22058,6917.805,95.436,540.908,538.432,0.0
49425.0,STARLINK-3139,PAYLOAD,2022-03-29 14:00:01,15.08859913,0.0001727,53.2161,218.4887,43.0293,105.0724,-0.0025887,-0.00041274,0.0,0 STARLINK-3139,1 49425U 21104T   22088.58334491 -.00041274  00000-0 -25887-2 0  9991,2 49425  53.2161 218.4887 0001727  43.0293 105.0724 15.08859913 22158,6917.82,95.436,540.879,538.49,0.0
49425.0,STARLINK-3139,PAYLOAD,2022-03-29 22:00:00,15.0883049,0.0001756,53.2162,216.9924,37.4246,122.2791,0.00068649,0.00010652,0.0,0 STARLINK-3139,1 49425U 21104T   22088.91667824  .00010652  00000-0  68649-3 0  9995,2 49425  53.2162 216.9924 0001756  37.4246 122.2791 15.08830490  3569,6917.909000000002,95.438,540.989,538.56,0.0
49425.0,STARLINK-3139,PAYLOAD,2022-03-30 02:00:01,15.08836408,0.0001654,53.2166,216.2432,40.0673,305.4298,0.00021903,3.199e-05,0.0,0 STARLINK-3139,1 49425U 21104T   22089.08334491  .00003199  00000-0  21903-3 0  9995,2 49425  53.2166 216.2432 0001654  40.0673 305.4298 15.08836408 22227,6917.891,95.438,540.901,538.612,0.0
49425.0,STARLINK-3139,PAYLOAD,2022-03-30 14:00:01,15.08848164,0.0001837,53.2169,213.9995,41.6889,141.2684,-0.001964,-0.00031417,0.0,0 STARLINK-3139,1 49425U 21104T   22089.58335648 -.00031417  00000-0 -19640-2 0  9995,2 49425  53.2169 213.9995 0001837  41.6889 141.2684 15.08848164  3560,6917.855,95.437,540.991,538.45,0.0
49425.0,STARLINK-3139,PAYLOAD,2022-03-30 22:00:00,15.08853125,0.0001873,53.217,212.5032,38.8735,155.6071,-0.0028364,-0.00045164,0.0,0 STARLINK-3139,1 49425U 21104T   22089.91667824 -.00045164  00000-0 -28364-2 0  9993,2 49425  53.2170 212.5032 0001873  38.8735 155.6071 15.08853125  3615,6917.84,95.437,541.001,538.41,0.0
49425.0,STARLINK-3139,PAYLOAD,2022-03-31 06:00:00,15.08812865,0.0001699,53.2175,211.0054,43.5986,162.4787,0.002573,0.00040869,0.0,0 STARLINK-3139,1 49425U 21104T   22090.25001157  .00040869  00000-0  25730-2 0  9992,2 49425  53.2175 211.0054 0001699  43.5986 162.4787 15.08812865 22409,6917.9630000000025,95.439,541.004,538.653,0.0
49425.0,STARLINK-3139,PAYLOAD,2022-03-31 14:00:01,15.08833429,0.0001936,53.2176,209.5107,41.3524,176.3096,-0.0014154,-0.0002274,0.0,0 STARLINK-3139,1 49425U 21104T   22090.58334491 -.00022740  00000-0 -14154-2 0  9996,2 49425  53.2176 209.5107 0001936  41.3524 176.3096 15.08833429  3594,6917.9,95.438,541.105,538.4259999999998,0.0
49425.0,STARLINK-3139,PAYLOAD,2022-03-31 22:00:00,15.08856873,0.0001971,53.2176,208.0142,40.6483,188.6085,0.00041494,6.325e-05,0.0,0 STARLINK-3139,1 49425U 21104T   22090.91667824  .00006325  00000-0  41494-3 0  9999,2 49425  53.2176 208.0142 0001971  40.6483 188.6085 15.08856873 22506,6917.829000000002,95.436,541.057,538.33,0.0
49425.0,STARLINK-3139,PAYLOAD,2022-04-01 14:00:01,15.08870517,0.0002008,53.2179,205.0219,43.0275,209.4718,-0.0027987,-0.00044592,0.0,0 STARLINK-3139,1 49425U 21104T   22091.58334491 -.00044592  00000-0 -27987-2 0  9994,2 49425  53.2179 205.0219 0002008  43.0275 209.4718 15.08870517  3616,6917.7869999999975,95.436,541.0409999999998,538.263,0.0
49425.0,STARLINK-3139,PAYLOAD,2022-04-01 22:00:00,15.08874056,0.0001941,53.2176,203.5251,39.1855,224.9361,-0.0055284,-0.00087291,0.0,0 STARLINK-3139,1 49425U 21104T   22091.91667824 -.00087291  00000-0 -55284-2 0  9994,2 49425  53.2176 203.5251 0001941  39.1855 224.9361 15.08874056 22650,6917.776,95.435,540.984,538.299,0.0
49425.0,STARLINK-3139,PAYLOAD,2022-04-02 14:00:01,15.08824697,0.0001963,53.2177,200.5332,41.2968,246.0438,-0.00039572,-6.578e-05,0.0,0 STARLINK-3139,1 49425U 21104T   22092.58335648 -.00006578  00000-0 -39572-3 0  9996,2 49425  53.2177 200.5332 0001963  41.2968 246.0438 15.08824697 22758,6917.927,95.439,541.15,538.434,0.0
49425.0,STARLINK-3139,PAYLOAD,2022-04-02 22:00:01,15.08848676,0.0001817,53.2172,199.0364,37.7847,261.1324,-0.0056022,-0.00088377,0.0,0 STARLINK-3139,1 49425U 21104T   22092.91668981 -.00088377  00000-0 -56022-2 0  9997,2 49425  53.2172 199.0364 0001817  37.7847 261.1324 15.08848676  3567,6917.854,95.437,540.976,538.462,0.0
49425.0,STARLINK-3139,PAYLOAD,2022-04-03 22:00:00,15.08819391,0.000185,53.2166,194.5479,38.092,295.4257,-0.0023558,-0.00037565,0.0,0 STARLINK-3139,1 49425U 21104T   22093.91667824 -.00037565  00000-0 -23558-2 0  9994,2 49425  53.2166 194.5479 0001850  38.0920 295.4257 15.08819391 22951,6917.943,95.439,541.0880000000002,538.529,0.0
49425.0,STARLINK-3139,PAYLOAD,2022-04-04 14:00:01,15.08814034,0.000196,53.2165,191.5562,40.13800000000001,316.4935,0.00096239,0.00015051,0.0,0 STARLINK-3139,1 49425U 21104T   22094.58334491  .00015051  00000-0  96239-3 0  9990,2 49425  53.2165 191.5562 0001960  40.1380 316.4935 15.08814034 23054,6917.96,95.439,541.181,538.469,0.0
49425.0,STARLINK-3139,PAYLOAD,2022-04-04 22:00:00,15.08859767,0.0001915,53.216,190.0589,39.1411,329.0746,-0.00065369,-0.00010682,0.0,0 STARLINK-3139,1 49425U 21104T   22094.91667824 -.00010682  00000-0 -65369-3 0  9993,2 49425  53.2160 190.0589 0001915  39.1411 329.0746 15.08859767 23114,6917.82,95.436,541.01,538.36,0.0
49425.0,STARLINK-3139,PAYLOAD,2022-04-05 14:00:01,15.088391,0.0001948,53.216,187.0671,37.4318,354.0781,0.00051406,7.902e-05,0.0,0 STARLINK-3139,1 49425U 21104T   22095.58335648  .00007902  00000-0  51406-3 0  9999,2 49425  53.2160 187.0671 0001948  37.4318 354.0781 15.08839100  3579,6917.8830000000025,95.438,541.096,538.401,0.0
49425.0,STARLINK-3139,PAYLOAD,2022-04-05 22:00:00,15.08865639,0.0001886,53.2159,185.5696,36.2818,6.7586,-0.00094362,-0.00015285,0.0,0 STARLINK-3139,1 49425U 21104T   22095.91667824 -.00015285  00000-0 -94362-3 0  9993,2 49425  53.2159 185.5696 0001886  36.2818   6.7586 15.08865639  3570,6917.802,95.436,540.972,538.362,0.0
49425.0,STARLINK-3139,PAYLOAD,2022-04-06 06:00:02,15.08870121,0.0001872,53.2161,184.0724,41.7767,12.9438,-0.00089102,-0.00014453,0.0,0 STARLINK-3139,1 49425U 21104T   22096.25002315 -.00014453  00000-0 -89102-3 0  9991,2 49425  53.2161 184.0724 0001872  41.7767  12.9438 15.08870121 23319,6917.788000000001,95.436,540.948,538.3580000000002,0.0
49425.0,STARLINK-3139,PAYLOAD,2022-04-06 14:00:01,15.08853904,0.0002105,53.2161,182.5779,38.4024,27.8719,-0.0014725,-0.00023656,0.0,0 STARLINK-3139,1 49425U 21104T   22096.58334491 -.00023656  00000-0 -14725-2 0  9993,2 49425  53.2161 182.5779 0002105  38.4024  27.8719 15.08853904  3608,6917.8380000000025,95.437,541.159,538.247,0.0
49425.0,STARLINK-3139,PAYLOAD,2022-04-06 22:00:00,15.08852237,0.000201,53.2162,181.0803,38.6767,39.2026,-0.0039578,-0.00062751,0.0,0 STARLINK-3139,1 49425U 21104T   22096.91667824 -.00062751  00000-0 -39578-2 0  9991,2 49425  53.2162 181.0803 0002010  38.6767  39.2026 15.08852237  3574,6917.843000000003,95.437,541.0980000000002,538.317,0.0
49425.0,STARLINK-3139,PAYLOAD,2022-04-07 06:00:00,15.08818046,0.0001985,53.2164,179.5833,43.7517,45.7058,0.0015014,0.00023673,0.0,0 STARLINK-3139,1 49425U 21104T   22097.25001157  .00023673  00000-0  15014-2 0  9997,2 49425  53.2164 179.5833 0001985  43.7517  45.7058 15.08818046 23468,6917.946999999999,95.439,541.186,538.439,0.0
